[
  {
    "COMMENT": "GENERATED VIA SPACETRACK.ORG API",
    "ORIGINATOR": "18 SPCS",
    "NORAD_CAT_ID": "43682",
    "OBJECT_NAME": "H-2A R/B",
    "OBJECT_TYPE": "ROCKET BODY",
    "CLASSIFICATION_TYPE": "U",
    "INTLDES": "18084L",
    "EPOCH": "2019-11-19 22:04:00",
    "EPOCH_MICROSECONDS": "109344",
    "MEAN_MOTION": "15.0270922",
    "ECCENTRICITY": "0.0058096",
    "INCLINATION": "98.9012",
    "RA_OF_ASC_NODE": "134.8582",
    "ARG_OF_PERICENTER": "102.365",
    "MEAN_ANOMALY": "258.4085",
    "EPHEMERIS_TYPE": "0",
    "ELEMENT_SET_NO": "999",
    "REV_AT_EPOCH": "5803",
    "BSTAR": "-0.000013088",
    "MEAN_MOTION_DOT": "-0.00000265",
    "MEAN_MOTION_DDOT": "0",
    "FILE": "2653696",
    "TLE_LINE0": "0 H-2A R/B",
    "TLE_LINE1": "1 43682U 18084L   19323.91944571 -.00000265 +00000-0 -13088-4 0  9991",
    "TLE_LINE2": "2 43682 098.9012 134.8582 0058096 102.3650 258.4085 15.02709220058036",
    "OBJECT_ID": "2018-084L",
    "OBJECT_NUMBER": "43682",
    "SEMIMAJOR_AXIS": "6936.683",
    "PERIOD": "95.827",
    "APOGEE": "598.848",
    "PERIGEE": "518.249",
    "DECAYED": "0"
  },
  {
    "COMMENT": "GENERATED VIA SPACETRACK.ORG API",
    "ORIGINATOR": "18 SPCS",
    "NORAD_CAT_ID": "43682",
    "OBJECT_NAME": "H-2A R/B",
    "OBJECT_TYPE": "ROCKET BODY",
    "CLASSIFICATION_TYPE": "U",
    "INTLDES": "18084L",
    "EPOCH": "2019-11-20 02:51:39",
    "EPOCH_MICROSECONDS": "411360",
    "MEAN_MOTION": "15.02708902",
    "ECCENTRICITY": "0.0058116",
    "INCLINATION": "98.9012",
    "RA_OF_ASC_NODE": "135.0873",
    "ARG_OF_PERICENTER": "101.7699",
    "MEAN_ANOMALY": "259.0043",
    "EPHEMERIS_TYPE": "0",
    "ELEMENT_SET_NO": "999",
    "REV_AT_EPOCH": "5806",
    "BSTAR": "-0.000015772",
    "MEAN_MOTION_DOT": "-0.00000303",
    "MEAN_MOTION_DDOT": "0",
    "FILE": "2653815",
    "TLE_LINE0": "0 H-2A R/B",
    "TLE_LINE1": "1 43682U 18084L   19324.11920615 -.00000303  00000-0 -15772-4 0  9992",
    "TLE_LINE2": "2 43682  98.9012 135.0873 0058116 101.7699 259.0043 15.02708902 58061",
    "OBJECT_ID": "2018-084L",
    "OBJECT_NUMBER": "43682",
    "SEMIMAJOR_AXIS": "6936.684",
    "PERIOD": "95.827",
    "APOGEE": "598.863",
    "PERIGEE": "518.236",
    "DECAYED": "0"
  },
  {
    "COMMENT": "GENERATED VIA SPACETRACK.ORG API",
    "ORIGINATOR": "18 SPCS",
    "NORAD_CAT_ID": "43682",
    "OBJECT_NAME": "H-2A R/B",
    "OBJECT_TYPE": "ROCKET BODY",
    "CLASSIFICATION_TYPE": "U",
    "INTLDES": "18084L",
    "EPOCH": "2019-11-20 12:26:58",
    "EPOCH_MICROSECONDS": "3296",
    "MEAN_MOTION": "15.02708897",
    "ECCENTRICITY": "0.0058108",
    "INCLINATION": "98.9012",
    "RA_OF_ASC_NODE": "135.5464",
    "ARG_OF_PERICENTER": "100.443",
    "MEAN_ANOMALY": "260.3344",
    "EPHEMERIS_TYPE": "0",
    "ELEMENT_SET_NO": "999",
    "REV_AT_EPOCH": "5812",
    "BSTAR": "-0.000013418",
    "MEAN_MOTION_DOT": "-0.0000027",
    "MEAN_MOTION_DDOT": "0",
    "FILE": "2654328",
    "TLE_LINE0": "0 H-2A R/B",
    "TLE_LINE1": "1 43682U 18084L   19324.51872689 -.00000270 +00000-0 -13418-4 0  9991",
    "TLE_LINE2": "2 43682 098.9012 135.5464 0058108 100.4430 260.3344 15.02708897058121",
    "OBJECT_ID": "2018-084L",
    "OBJECT_NUMBER": "43682",
    "SEMIMAJOR_AXIS": "6936.684",
    "PERIOD": "95.827",
    "APOGEE": "598.857",
    "PERIGEE": "518.242",
    "DECAYED": "0"
  },
  {
    "COMMENT": "GENERATED VIA SPACETRACK.ORG API",
    "ORIGINATOR": "18 SPCS",
    "NORAD_CAT_ID": "43682",
    "OBJECT_NAME": "H-2A R/B",
    "OBJECT_TYPE": "ROCKET BODY",
    "CLASSIFICATION_TYPE": "U",
    "INTLDES": "18084L",
    "EPOCH": "2019-11-21 10:49:21",
    "EPOCH_MICROSECONDS": "495936",
    "MEAN_MOTION": "15.02707892",
    "ECCENTRICITY": "0.005791",
    "INCLINATION": "98.9007",
    "RA_OF_ASC_NODE": "136.615",
    "ARG_OF_PERICENTER": "97.2524",
    "MEAN_ANOMALY": "263.5286",
    "EPHEMERIS_TYPE": "0",
    "ELEMENT_SET_NO": "999",
    "REV_AT_EPOCH": "5826",
    "BSTAR": "-0.000020359",
    "MEAN_MOTION_DOT": "-0.00000366",
    "MEAN_MOTION_DDOT": "0",
    "FILE": "2654539",
    "TLE_LINE0": "0 H-2A R/B",
    "TLE_LINE1": "1 43682U 18084L   19325.45094324 -.00000366  00000-0 -20359-4 0  9995",
    "TLE_LINE2": "2 43682  98.9007 136.6150 0057910  97.2524 263.5286 15.02707892 58265",
    "OBJECT_ID": "2018-084L",
    "OBJECT_NUMBER": "43682",
    "SEMIMAJOR_AXIS": "6936.687",
    "PERIOD": "95.827",
    "APOGEE": "598.723",
    "PERIGEE": "518.382",
    "DECAYED": "0"
  },
  {
    "COMMENT": "GENERATED VIA SPACETRACK.ORG API",
    "ORIGINATOR": "18 SPCS",
    "NORAD_CAT_ID": "43682",
    "OBJECT_NAME": "H-2A R/B",
    "OBJECT_TYPE": "ROCKET BODY",
    "CLASSIFICATION_TYPE": "U",
    "INTLDES": "18084L",
    "EPOCH": "2019-11-21 14:01:07",
    "EPOCH_MICROSECONDS": "693248",
    "MEAN_MOTION": "15.02707834",
    "ECCENTRICITY": "0.005791",
    "INCLINATION": "98.9008",
    "RA_OF_ASC_NODE": "136.7682",
    "ARG_OF_PERICENTER": "96.7999",
    "MEAN_ANOMALY": "263.9815",
    "EPHEMERIS_TYPE": "0",
    "ELEMENT_SET_NO": "999",
    "REV_AT_EPOCH": "5828",
    "BSTAR": "-0.000019837",
    "MEAN_MOTION_DOT": "-0.00000359",
    "MEAN_MOTION_DDOT": "0",
    "FILE": "2654872",
    "TLE_LINE0": "0 H-2A R/B",
    "TLE_LINE1": "1 43682U 18084L   19325.58411682 -.00000359 +00000-0 -19837-4 0  9990",
    "TLE_LINE2": "2 43682 098.9008 136.7682 0057910 096.7999 263.9815 15.02707834058287",
    "OBJECT_ID": "2018-084L",
    "OBJECT_NUMBER": "43682",
    "SEMIMAJOR_AXIS": "6936.688",
    "PERIOD": "95.827",
    "APOGEE": "598.723",
    "PERIGEE": "518.382",
    "DECAYED": "0"
  },
  {
    "COMMENT": "GENERATED VIA SPACETRACK.ORG API",
    "ORIGINATOR": "18 SPCS",
    "NORAD_CAT_ID": "43682",
    "OBJECT_NAME": "H-2A R/B",
    "OBJECT_TYPE": "ROCKET BODY",
    "CLASSIFICATION_TYPE": "U",
    "INTLDES": "18084L",
    "EPOCH": "2019-11-22 13:59:24",
    "EPOCH_MICROSECONDS": "223200",
    "MEAN_MOTION": "15.02707279",
    "ECCENTRICITY": "0.0057824",
    "INCLINATION": "98.9005",
    "RA_OF_ASC_NODE": "137.9141",
    "ARG_OF_PERICENTER": "93.4833",
    "MEAN_ANOMALY": "267.3005",
    "EPHEMERIS_TYPE": "0",
    "ELEMENT_SET_NO": "999",
    "REV_AT_EPOCH": "5843",
    "BSTAR": "-0.000019357",
    "MEAN_MOTION_DOT": "-0.00000352",
    "MEAN_MOTION_DDOT": "0",
    "FILE": "2655298",
    "TLE_LINE0": "0 H-2A R/B",
    "TLE_LINE1": "1 43682U 18084L   19326.58291925 -.00000352  00000-0 -19357-4 0  9997",
    "TLE_LINE2": "2 43682  98.9005 137.9141 0057824  93.4833 267.3005 15.02707279 58431",
    "OBJECT_ID": "2018-084L",
    "OBJECT_NUMBER": "43682",
    "SEMIMAJOR_AXIS": "6936.689",
    "PERIOD": "95.827",
    "APOGEE": "598.665",
    "PERIGEE": "518.444",
    "DECAYED": "0"
  },
  {
    "COMMENT": "GENERATED VIA SPACETRACK.ORG API",
    "ORIGINATOR": "18 SPCS",
    "NORAD_CAT_ID": "43682",
    "OBJECT_NAME": "H-2A R/B",
    "OBJECT_TYPE": "ROCKET BODY",
    "CLASSIFICATION_TYPE": "U",
    "INTLDES": "18084L",
    "EPOCH": "2019-11-22 21:58:49",
    "EPOCH_MICROSECONDS": "729440",
    "MEAN_MOTION": "15.02707085",
    "ECCENTRICITY": "0.0057829",
    "INCLINATION": "98.9005",
    "RA_OF_ASC_NODE": "138.2961",
    "ARG_OF_PERICENTER": "92.4054",
    "MEAN_ANOMALY": "268.3789",
    "EPHEMERIS_TYPE": "0",
    "ELEMENT_SET_NO": "999",
    "REV_AT_EPOCH": "5848",
    "BSTAR": "-0.00001949",
    "MEAN_MOTION_DOT": "-0.00000354",
    "MEAN_MOTION_DDOT": "0",
    "FILE": "2655455",
    "TLE_LINE0": "0 H-2A R/B",
    "TLE_LINE1": "1 43682U 18084L   19326.91585335 -.00000354 +00000-0 -19490-4 0  9995",
    "TLE_LINE2": "2 43682 098.9005 138.2961 0057829 092.4054 268.3789 15.02707085058484",
    "OBJECT_ID": "2018-084L",
    "OBJECT_NUMBER": "43682",
    "SEMIMAJOR_AXIS": "6936.690",
    "PERIOD": "95.827",
    "APOGEE": "598.669",
    "PERIGEE": "518.441",
    "DECAYED": "0"
  },
  {
    "COMMENT": "GENERATED VIA SPACETRACK.ORG API",
    "ORIGINATOR": "18 SPCS",
    "NORAD_CAT_ID": "43682",
    "OBJECT_NAME": "H-2A R/B",
    "OBJECT_TYPE": "ROCKET BODY",
    "CLASSIFICATION_TYPE": "U",
    "INTLDES": "18084L",
    "EPOCH": "2019-11-23 21:57:06",
    "EPOCH_MICROSECONDS": "214464",
    "MEAN_MOTION": "15.02706722",
    "ECCENTRICITY": "0.0057663",
    "INCLINATION": "98.9",
    "RA_OF_ASC_NODE": "139.4417",
    "ARG_OF_PERICENTER": "89.1855",
    "MEAN_ANOMALY": "271.5974",
    "EPHEMERIS_TYPE": "0",
    "ELEMENT_SET_NO": "999",
    "REV_AT_EPOCH": "5863",
    "BSTAR": "-0.000017135",
    "MEAN_MOTION_DOT": "-0.00000321",
    "MEAN_MOTION_DDOT": "0",
    "FILE": "2655868",
    "TLE_LINE0": "0 H-2A R/B",
    "TLE_LINE1": "1 43682U 18084L   19327.91465526 -.00000321 +00000-0 -17135-4 0  9993",
    "TLE_LINE2": "2 43682 098.9000 139.4417 0057663 089.1855 271.5974 15.02706722058632",
    "OBJECT_ID": "2018-084L",
    "OBJECT_NUMBER": "43682",
    "SEMIMAJOR_AXIS": "6936.691",
    "PERIOD": "95.827",
    "APOGEE": "598.555",
    "PERIGEE": "518.557",
    "DECAYED": "0"
  }
]